FENGYUN 1C DEB          
1 32319U 99025CXL 17346.51213484  .00001573  00000-0  17949-3 0  9991
2 32319  99.1214 101.4586 0124770  52.3620 308.8835 14.82499113558498
